NORAD_CAT_ID,OBJECT_NAME,OBJECT_TYPE,EPOCH,MEAN_MOTION,ECCENTRICITY,INCLINATION,RA_OF_ASC_NODE,ARG_OF_PERICENTER,MEAN_ANOMALY,BSTAR,MEAN_MOTION_DOT,MEAN_MOTION_DDOT,TLE_LINE0,TLE_LINE1,TLE_LINE2,SEMIMAJOR_AXIS,PERIOD,APOGEE,PERIGEE,DECAYED
55958.0,STARLINK-5928,PAYLOAD,2024-02-26 04:34:14,14.9833802,0.0002677,70.0009,336.5751,271.3708,88.7145,0.00010782,1.194e-05,0.0,0 STARLINK-5928,1 55958U 23037AW  24057.19044071  .00001194  00000-0  10782-3 0  9997,2 55958  70.0009 336.5751 0002677 271.3708  88.7145 14.98338020 53593,6950.168,96.106,573.894,570.173,0.0
55958.0,STARLINK-5928,PAYLOAD,2024-02-26 18:59:27,14.98330711,0.0002155,70.0027,335.0594,276.8851,83.2063,-7.1557e-05,-9.47e-06,0.0,0 STARLINK-5928,1 55958U 23037AW  24057.79129145 -.00000947  00000-0 -71557-4 0  9994,2 55958  70.0027 335.0594 0002155 276.8851  83.2063 14.98330711 53680,6950.191,96.107,573.553,570.558,0.0
55958.0,STARLINK-5928,PAYLOAD,2024-02-26 22:11:43,14.98326183,0.0002488,70.0014,334.7244,276.3866,83.701,-9.0416e-05,-1.171e-05,0.0,0 STARLINK-5928,1 55958U 23037AW  24057.92481425 -.00001171  00000-0 -90416-4 0  9996,2 55958  70.0014 334.7244 0002488 276.3866  83.7010 14.98326183 53364,6950.205,96.107,573.799,570.34,0.0
55958.0,STARLINK-5928,PAYLOAD,2024-02-27 11:00:48,14.98330275,0.0002816,70.0005,333.3772,269.8684,90.2152,-6.2489e-05,-8.38e-06,0.0,0 STARLINK-5928,1 55958U 23037AW  24058.45888952 -.00000838  00000-0 -62489-4 0  9999,2 55958  70.0005 333.3772 0002816 269.8684  90.2152 14.98330275 53441,6950.192,96.107,574.014,570.1,0.0
55958.0,STARLINK-5928,PAYLOAD,2024-02-27 19:01:28,14.98330623,0.0002815,69.9999,332.5364,268.5567,91.527,-7.0594e-05,-9.35e-06,0.0,0 STARLINK-5928,1 55958U 23037AW  24058.79268960 -.00000935  00000-0 -70594-4 0  9991,2 55958  69.9999 332.5364 0002815 268.5567  91.5270 14.98330623 53838,6950.191,96.107,574.012,570.099,0.0
55958.0,STARLINK-5928,PAYLOAD,2024-02-27 22:13:44,14.98329391,0.0002886,70.0002,332.1988,268.0518,92.0311,-5.3312e-05,-7.29e-06,0.0,0 STARLINK-5928,1 55958U 23037AW  24058.92620955 -.00000729  00000-0 -53312-4 0  9992,2 55958  70.0002 332.1988 0002886 268.0518  92.0311 14.98329391 53510,6950.195,96.107,574.066,570.054,0.0
55958.0,STARLINK-5928,PAYLOAD,2024-02-28 04:38:16,14.98335702,0.0002947,70.0002,331.5262,271.2146,88.8676,2.9152e-06,-5.8e-07,0.0,0 STARLINK-5928,1 55958U 23037AW  24059.19324373 -.00000058  00000-0  29152-5 0  9997,2 55958  70.0002 331.5262 0002947 271.2146  88.8676 14.98335702 53890,6950.175,96.107,574.088,569.992,0.0
55958.0,STARLINK-5928,PAYLOAD,2024-02-28 19:03:29,14.98323238,0.0002632,70.0004,330.0116,256.1225,103.9642,4.3853e-05,4.3e-06,0.0,0 STARLINK-5928,1 55958U 23037AW  24059.79409017  .00000430  00000-0  43853-4 0  9998,2 55958  70.0004 330.0116 0002632 256.1225 103.9642 14.98323238 53988,6950.214,96.107,573.908,570.25,0.0
55958.0,STARLINK-5928,PAYLOAD,2024-02-28 22:15:45,14.98323784,0.0002626,70.0005,329.675,256.2066,103.8801,4.7744e-05,4.77e-06,0.0,0 STARLINK-5928,1 55958U 23037AW  24059.92761021  .00000477  00000-0  47744-4 0  9993,2 55958  70.0005 329.6750 0002626 256.2066 103.8801 14.98323784 53661,6950.212,96.107,573.902,570.252,0.0
55958.0,STARLINK-5928,PAYLOAD,2024-02-29 11:04:50,14.98316265,0.0002387,70.0005,328.3277,275.5219,84.5667,0.00020542,2.358e-05,0.0,0 STARLINK-5928,1 55958U 23037AW  24060.46169457  .00002358  00000-0  20542-3 0  9995,2 55958  70.0005 328.3277 0002387 275.5219  84.5667 14.98316265 53749,6950.235,96.108,573.759,570.441,0.0
55958.0,STARLINK-5928,PAYLOAD,2024-02-29 20:41:38,14.98319762,0.0003124,70.0003,327.3176,262.7757,97.3047,0.00016326,1.855e-05,0.0,0 STARLINK-5928,1 55958U 23037AW  24060.86225064  .00001855  00000-0  16326-3 0  9992,2 55958  70.0003 327.3176 0003124 262.7757  97.3047 14.98319762 54143,6950.225,96.108,574.261,569.918,0.0
55958.0,STARLINK-5928,PAYLOAD,2024-02-29 22:17:46,14.98319863,0.0003133,70.0004,327.1494,262.3176,97.7628,0.00015671,1.777e-05,0.0,0 STARLINK-5928,1 55958U 23037AW  24060.92901104  .00001777  00000-0  15671-3 0  9990,2 55958  70.0004 327.1494 0003133 262.3176  97.7628 14.98319863 53810,6950.224,96.108,574.267,569.912,0.0
55958.0,STARLINK-5928,PAYLOAD,2024-03-01 03:06:11,14.98293177,0.0002627,70.0003,326.6444,260.3713,99.715,0.00064275,7.577e-05,0.0,0 STARLINK-5928,1 55958U 23037AW  24061.12929834  .00007577  00000-0  64275-3 0  9991,2 55958  70.0003 326.6444 0002627 260.3713  99.7150 14.98293177 54182,6950.307,96.109,573.998,570.346,0.0
55958.0,STARLINK-5928,PAYLOAD,2024-03-01 11:06:50,14.98331069,0.0002607,70.0003,325.8024,266.433,93.6531,-2.4132e-06,-1.22e-06,0.0,0 STARLINK-5928,1 55958U 23037AW  24061.46308886 -.00000122  00000-0 -24132-5 0  9997,2 55958  70.0003 325.8024 0002607 266.4330  93.6531 14.98331069 53893,6950.19,96.107,573.866,570.243,0.0
55958.0,STARLINK-5928,PAYLOAD,2024-03-01 22:19:47,14.98330031,0.0002702,70.0,324.6241,266.1534,93.9316,2.7176e-05,2.31e-06,0.0,0 STARLINK-5928,1 55958U 23037AW  24061.93040818  .00000231  00000-0  27176-4 0  9996,2 55958  70.0000 324.6241 0002702 266.1534  93.9316 14.98330031 53967,6950.193,96.107,573.936,570.18,0.0
55958.0,STARLINK-5928,PAYLOAD,2024-03-02 03:08:11,14.98333387,0.0002655,70.0,324.1191,266.2896,93.796,6.6457e-05,7e-06,0.0,0 STARLINK-5928,1 55958U 23037AW  24062.13068468  .00000700  00000-0  66457-4 0  9996,2 55958  70.0000 324.1191 0002655 266.2896  93.7960 14.98333387 53998,6950.182,96.107,573.893,570.202,0.0
55958.0,STARLINK-5928,PAYLOAD,2024-03-02 19:09:32,14.98329827,0.0002586,70.0001,322.4359,266.8407,93.2456,-1.1188e-06,-1.06e-06,0.0,0 STARLINK-5928,1 55958U 23037AW  24062.79828806 -.00000106  00000-0 -11188-5 0  9992,2 55958  70.0001 322.4359 0002586 266.8407  93.2456 14.98329827 54432,6950.193,96.107,573.856,570.261,0.0
55958.0,STARLINK-5928,PAYLOAD,2024-03-02 22:21:48,14.98329417,0.0002594,70.0,322.0993,266.8416,93.2446,-4.9822e-06,-1.52e-06,0.0,0 STARLINK-5928,1 55958U 23037AW  24062.93180836 -.00000152  00000-0 -49822-5 0  9999,2 55958  70.0000 322.0993 0002594 266.8416  93.2446 14.98329417 54119,6950.195,96.107,573.863,570.257,0.0
55958.0,STARLINK-5928,PAYLOAD,2024-03-03 03:10:12,14.98330549,0.0002596,70.0,321.594,266.3357,93.7506,4.0612e-06,-4.4e-07,0.0,0 STARLINK-5928,1 55958U 23037AW  24063.13208725 -.00000044  00000-0  40612-5 0  9997,2 55958  70.0000 321.5940 0002596 266.3357  93.7506 14.98330549 54149,6950.191,96.107,573.86,570.252,0.0
55958.0,STARLINK-5928,PAYLOAD,2024-03-03 20:47:40,14.9832962,0.0002789,70.0,319.7451,270.9727,89.1112,2.1729e-05,1.66e-06,0.0,0 STARLINK-5928,1 55958U 23037AW  24063.86644665  .00000166  00000-0  21729-4 0  9995,2 55958  70.0000 319.7451 0002789 270.9727  89.1112 14.98329620 54253,6950.194,96.107,573.997,570.121,0.0
55958.0,STARLINK-5928,PAYLOAD,2024-03-04 03:12:12,14.98339118,0.0002499,70.0003,319.0721,266.4461,93.6412,3.1535e-05,2.83e-06,0.0,0 STARLINK-5928,1 55958U 23037AW  24064.13347982  .00000283  00000-0  31535-4 0  9994,2 55958  70.0003 319.0721 0002499 266.4461  93.6412 14.98339118 54630,6950.165,96.106,573.767,570.293,0.0
55958.0,STARLINK-5928,PAYLOAD,2024-03-04 09:36:44,14.98338944,0.0002558,69.9996,318.3983,250.7082,109.3801,-3.8811e-05,-5.56e-06,0.0,0 STARLINK-5928,1 55958U 23037AW  24064.40051979 -.00000556  00000-0 -38811-4 0  9991,2 55958  69.9996 318.3983 0002558 250.7082 109.3801 14.98338944 54331,6950.165,96.106,573.808,570.252,0.0
55958.0,STARLINK-5928,PAYLOAD,2024-03-04 22:25:49,14.98332393,0.00025,70.0001,317.0496,258.9189,101.1689,4.229e-05,4.12e-06,0.0,0 STARLINK-5928,1 55958U 23037AW  24064.93459956  .00000412  00000-0  42290-4 0  9991,2 55958  70.0001 317.0496 0002500 258.9189 101.1689 14.98332393 54416,6950.185,96.107,573.788,570.313,0.0
55958.0,STARLINK-5928,PAYLOAD,2024-03-05 03:14:13,14.98334329,0.0002497,70.0001,316.5446,256.1758,103.9124,6.3333e-05,6.63e-06,0.0,0 STARLINK-5928,1 55958U 23037AW  24065.13487701  .00000663  00000-0  63333-4 0  9992,2 55958  70.0001 316.5446 0002497 256.1758 103.9124 14.98334329 54787,6950.18,96.107,573.78,570.309,0.0
55958.0,STARLINK-5928,PAYLOAD,2024-03-05 20:51:43,14.9832443,0.0002201,70.0,314.6933,244.4682,115.6249,-0.00012629,-1.599e-05,0.0,0 STARLINK-5928,1 55958U 23037AW  24065.86924940 -.00001599  00000-0 -12629-3 0  9995,2 55958  70.0000 314.6933 0002201 244.4682 115.6249 14.98324430 54897,6950.21,96.107,573.605,570.545,0.0
55958.0,STARLINK-5928,PAYLOAD,2024-03-06 03:16:15,14.98323803,0.000228,70.0,314.0203,246.0473,114.0447,-0.00011284,-1.439e-05,0.0,0 STARLINK-5928,1 55958U 23037AW  24066.13629032 -.00001439  00000-0 -11284-3 0  9999,2 55958  70.0000 314.0203 0002280 246.0473 114.0447 14.98323803 54597,6950.212,96.107,573.662,570.492,0.0
55958.0,STARLINK-5928,PAYLOAD,2024-03-07 01:42:07,14.98329212,0.0002784,69.9996,311.6636,262.9137,97.1705,1.1839e-05,4.8e-07,0.0,0 STARLINK-5928,1 55958U 23037AW  24067.07092431  .00000048  00000-0  11839-4 0  9990,2 55958  69.9996 311.6636 0002784 262.9137  97.1705 14.98329212 55076,6950.195,96.107,573.995,570.125,0.0
55958.0,STARLINK-5928,PAYLOAD,2024-03-07 09:42:48,14.98331558,0.0002636,69.9999,310.8206,273.7875,86.2983,-4.3568e-05,-6.13e-06,0.0,0 STARLINK-5928,1 55958U 23037AW  24067.40472522 -.00000613  00000-0 -43568-4 0  9994,2 55958  69.9999 310.8206 0002636 273.7875  86.2983 14.98331558 54788,6950.188,96.107,573.885,570.221,0.0
55958.0,STARLINK-5928,PAYLOAD,2024-03-08 01:44:08,14.98325854,0.0002788,69.9995,309.1366,266.0221,94.0619,0.00011323,1.258e-05,0.0,0 STARLINK-5928,1 55958U 23037AW  24068.07232576  .00001258  00000-0  11323-3 0  9998,2 55958  69.9995 309.1366 0002788 266.0221  94.0619 14.98325854 55225,6950.206,96.107,574.008,570.133,0.0
55958.0,STARLINK-5928,PAYLOAD,2024-03-08 09:44:49,14.98329772,0.0002811,69.9993,308.2952,273.5143,86.5694,5.4967e-05,5.63e-06,0.0,0 STARLINK-5928,1 55958U 23037AW  24068.40612572  .00000563  00000-0  54967-4 0  9993,2 55958  69.9993 308.2952 0002811 273.5143  86.5694 14.98329772 54936,6950.194,96.107,574.012,570.105,0.0
